OBJECT_NAME,OBJECT_ID,EPOCH,MEAN_MOTION,ECCENTRICITY,INCLINATION,RA_OF_ASC_NODE,ARG_OF_PERICENTER,MEAN_ANOMALY,EPHEMERIS_TYPE,CLASSIFICATION_TYPE,NORAD_CAT_ID,ELEMENT_SET_NO,REV_AT_EPOCH,BSTAR,MEAN_MOTION_DOT,MEAN_MOTION_DDOT
IRIDIUM 154,2018-061F,2026-06-13T11:08:18.323808,14.34219216,.00021083,86.3967,58.3637,87.1246,273.0191,0,U,43574,999,41287,.7827219E-4,.239E-5,0
IRIDIUM 163,2018-061G,2026-06-13T15:42:17.941248,14.34216659,.00022716,86.3962,58.1996,83.5891,276.5563,0,U,43575,999,41287,.35333781E-4,.119E-5,0
IRIDIUM 156,2018-061H,2026-06-13T15:05:46.392288,14.34217990,.00020849,86.3961,58.2173,81.5493,278.5939,0,U,43576,999,41286,.8122948E-4,.247E-5,0
IRIDIUM 164,2018-061J,2026-06-13T09:36:58.484160,14.34217647,.00021139,86.3965,58.3532,88.7667,271.3771,0,U,43577,999,41287,.13946477E-4,.59E-6,0
IRIDIUM 159,2018-061K,2026-06-13T15:33:10.461600,14.34218007,.00022934,86.3962,58.1865,84.0481,276.0976,0,U,43578,999,41287,.50428875E-4,.161E-5,0
IRIDIUM 180,2019-002A,2026-06-13T13:51:58.929696,14.34217414,.00021498,86.3968,355.1068,89.1483,270.9959,0,U,43922,999,38847,-.9228162E-5,-.6E-7,0
IRIDIUM 176,2019-002B,2026-06-13T13:21:36.787392,14.72262769,.00022508,86.6091,355.0597,92.0404,268.1071,0,U,43923,999,39871,.11269893E-3,.735E-5,0
IRIDIUM 168,2019-002C,2026-06-13T13:42:50.916960,14.34218082,.00021702,86.3973,355.1867,89.1542,270.9903,0,U,43924,999,38845,.15706867E-4,.64E-6,0
IRIDIUM 173,2019-002D,2026-06-13T13:24:34.971840,14.34217320,.00022104,86.3968,355.0809,86.8150,273.3298,0,U,43925,999,38843,.6177101E-5,.37E-6,0
IRIDIUM 169,2019-002E,2026-06-13T15:14:53.711232,14.38607512,.0001984,86.4227,26.6785,71.3532,288.7882,0,U,43926,999,38971,.80706351E-4,.267E-5,0
IRIDIUM 172,2019-002F,2026-06-13T14:55:54.879744,14.34217342,.00022558,86.3969,355.0625,89.1285,271.0170,0,U,43927,999,38845,.34240571E-4,.116E-5,0
IRIDIUM 175,2019-002G,2026-06-13T14:27:05.945760,14.43610956,.00020211,86.4510,292.0197,191.7077,168.4077,0,U,43928,999,39846,.79784349E-4,.29E-5,0
IRIDIUM 171,2019-002H,2026-06-13T14:28:30.898560,14.34216494,.00018907,86.3976,355.3762,87.8660,272.2753,0,U,43929,999,38844,-.71154997E-4,-.179E-5,0
IRIDIUM 170,2019-002J,2026-06-13T13:30:30.896640,14.72263254,.00023576,86.6091,355.0596,88.4637,271.6850,0,U,43930,999,39872,.11351646E-3,.741E-5,0
IRIDIUM 167,2019-002K,2026-06-13T14:19:22.877184,14.34217723,.00018656,86.3970,355.0952,89.1104,271.0305,0,U,43931,999,38844,.1966964E-5,.25E-6,0
IRIDIUM 181,2023-068S,2026-06-13T15:21:34.761888,14.43312917,.00023412,86.4501,58.2734,89.3370,270.8099,0,U,56726,999,16192,.81983075E-4,.296E-5,0
IRIDIUM 177,2023-068T,2026-06-13T12:53:06.682560,14.80224262,.00023963,86.1959,330.5255,87.2990,272.8505,0,U,56727,999,16582,.13454122E-3,.1049E-4,0
IRIDIUM 174,2023-068U,2026-06-13T13:12:44.229888,14.72259454,.00025096,86.6098,355.2118,84.4248,275.7255,0,U,56728,999,16548,.11638204E-3,.759E-5,0
IRIDIUM 178,2023-068V,2026-06-13T14:14:48.481152,14.80228278,.00026644,86.6540,26.8622,86.8851,273.2675,0,U,56729,999,16583,.11865155E-3,.928E-5,0
IRIDIUM 179,2023-068W,2026-06-13T14:07:02.329824,14.80232131,.00024276,86.6784,35.8336,88.5364,271.6135,0,U,56730,999,16583,.11780616E-3,.921E-5,0
