IRIDIUM 154             
1 43574U 18061F   26164.46410097  .00000239  00000+0  78272-4 0  9992
2 43574  86.3967  58.3637 0002108  87.1246 273.0191 14.34219216412873
IRIDIUM 163             
1 43575U 18061G   26164.65437432  .00000119  00000+0  35334-4 0  9995
2 43575  86.3962  58.1996 0002271  83.5891 276.5563 14.34216659412871
IRIDIUM 156             
1 43576U 18061H   26164.62900917  .00000247  00000+0  81229-4 0  9992
2 43576  86.3961  58.2173 0002084  81.5493 278.5939 14.34217990412864
IRIDIUM 164             
1 43577U 18061J   26164.40067690  .00000059  00000+0  13946-4 0  9993
2 43577  86.3965  58.3532 0002113  88.7667 271.3771 14.34217647412879
IRIDIUM 159             
1 43578U 18061K   26164.64803775  .00000161  00000+0  50429-4 0  9993
2 43578  86.3962  58.1865 0002293  84.0481 276.0976 14.34218007412876
IRIDIUM 180             
1 43922U 19002A   26164.57776539 -.00000006  00000+0 -92282-5 0  9995
2 43922  86.3968 355.1068 0002149  89.1483 270.9959 14.34217414388471
IRIDIUM 176             
1 43923U 19002B   26164.55667578  .00000735  00000+0  11270-3 0  9999
2 43923  86.6091 355.0597 0002250  92.0404 268.1071 14.72262769398714
IRIDIUM 168             
1 43924U 19002C   26164.57142265  .00000064  00000+0  15707-4 0  9998
2 43924  86.3973 355.1867 0002170  89.1542 270.9903 14.34218082388455
IRIDIUM 173             
1 43925U 19002D   26164.55873810  .00000037  00000+0  61771-5 0  9997
2 43925  86.3968 355.0809 0002210  86.8150 273.3298 14.34217320388435
IRIDIUM 169             
1 43926U 19002E   26164.63534388  .00000267  00000+0  80706-4 0  9994
2 43926  86.4227  26.6785 0001984  71.3532 288.7882 14.38607512389710
IRIDIUM 172             
1 43927U 19002F   26164.62216296  .00000116  00000+0  34241-4 0  9995
2 43927  86.3969 355.0625 0002255  89.1285 271.0170 14.34217342388458
IRIDIUM 175             
1 43928U 19002G   26164.60215215  .00000290  00000+0  79784-4 0  9998
2 43928  86.4510 292.0197 0002021 191.7077 168.4077 14.43610956398461
IRIDIUM 171             
1 43929U 19002H   26164.60313540 -.00000179  00000+0 -71155-4 0  9991
2 43929  86.3976 355.3762 0001890  87.8660 272.2753 14.34216494388445
IRIDIUM 170             
1 43930U 19002J   26164.56285760  .00000741  00000+0  11352-3 0  9995
2 43930  86.6091 355.0596 0002357  88.4637 271.6850 14.72263254398721
IRIDIUM 167             
1 43931U 19002K   26164.59679256  .00000025  00000+0  19670-5 0  9994
2 43931  86.3970 355.0952 0001865  89.1104 271.0305 14.34217723388446
IRIDIUM 181             
1 56726U 23068S   26164.63998567  .00000296  00000+0  81983-4 0  9996
2 56726  86.4501  58.2734 0002341  89.3370 270.8099 14.43312917161920
IRIDIUM 177             
1 56727U 23068T   26164.53688290  .00001049  00000+0  13454-3 0  9999
2 56727  86.1959 330.5255 0002396  87.2990 272.8505 14.80224262165827
IRIDIUM 174             
1 56728U 23068U   26164.55051192  .00000759  00000+0  11638-3 0  9996
2 56728  86.6098 355.2118 0002509  84.4248 275.7255 14.72259454165488
IRIDIUM 178             
1 56729U 23068V   26164.59361668  .00000928  00000+0  11865-3 0  9993
2 56729  86.6540  26.8622 0002664  86.8851 273.2675 14.80228278165837
IRIDIUM 179             
1 56730U 23068W   26164.58822141  .00000921  00000+0  11781-3 0  9992
2 56730  86.6784  35.8336 0002427  88.5364 271.6135 14.80232131165832
